     2.10           N: GPS NAV DATA                         RINEX VERSION / TYPE
teqc  2008Oct2      gpsops              20090201 00:09:35UTCPGM / RUN BY / DATE
Linux 2.4.20-8|Pentium IV|gcc -static|Linux|486/DX+         COMMENT
soc2rnx ver 1.20    gpsops               1-Feb-2009 00:09:24COMMENT
Forced Modulo Decimation to 30 seconds                      COMMENT
GLPS                                    MARKER NAME         COMMENT
42005M002                               MARKER NUMBER       COMMENT
-33801.4662 -6377516.5323 -82154.3508                       COMMENT
                                                            COMMENT
This data is provided as a public service by NASA/JPL.      COMMENT
No warranty is expressed or implied regarding suitability   COMMENT
for use.  For further information, contact:                 COMMENT
Dave Stowers, NASA/JPL m/s 238-600                          COMMENT
4800 Oak Grove Drive, Pasadena CA 91109 USA                 COMMENT
                                                            END OF HEADER
 8 09  1 31 10  0  0.0-1.885937526822D-04-1.591615728103D-12 0.000000000000D+00
    6.400000000000D+01 3.518750000000D+01 4.138386666130D-09-1.084501022049D+00
    1.627951860428D-06 1.048674271442D-02 6.327405571938D-06 5.153681861877D+03
    5.544000000000D+05-2.235174179077D-08-1.351568514391D+00-1.341104507446D-07
    9.867391412345D-01 2.706875000000D+02 2.974506923696D+00-7.986046936624D-09
    4.989493546719D-10 1.000000000000D+00 1.516000000000D+03 0.000000000000D+00
    2.000000000000D+00 0.000000000000D+00-4.190951585770D-09 6.400000000000D+01
    5.523600000000D+05
 4 09  1 31 10  0  0.0-3.193523734808D-04-1.386979420204D-11 0.000000000000D+00
    3.100000000000D+01 7.662500000000D+01 5.056282043014D-09-2.043504539961D+00
    3.825873136520D-06 8.626960217953D-03 6.549060344696D-06 5.153670381546D+03
    5.544000000000D+05 1.862645149231D-09 1.738676684531D+00-6.705522537231D-08
    9.407452630734D-01 2.443750000000D+02 4.713783328568D-01-8.301774373654D-09
    3.200133298397D-10 1.000000000000D+00 1.516000000000D+03 0.000000000000D+00
    2.000000000000D+00 0.000000000000D+00-6.053596735001D-09 3.100000000000D+01
    5.541000000000D+05
 4 09  1 31 12  0  0.0-3.194515593350D-04-1.386979420204D-11 0.000000000000D+00
    3.300000000000D+01 6.875000000000D+01 5.014494588113D-09-9.931708371633D-01
    3.641471266747D-06 8.627015515231D-03 6.653368473053D-06 5.153672780991D+03
    5.616000000000D+05 1.806765794754D-07 1.738617374907D+00-2.235174179077D-08
    9.407468927642D-01 2.395625000000D+02 4.712300544061D-01-8.403207170165D-09
    1.996511734156D-10 1.000000000000D+00 1.516000000000D+03 0.000000000000D+00
    2.000000000000D+00 0.000000000000D+00-6.053596735001D-09 3.300000000000D+01
    5.544000000000D+05
 7 09  1 31 12  0  0.0 2.301763743162D-05-2.273736754432D-13 0.000000000000D+00
    1.800000000000D+01 3.100000000000D+01 4.535188908822D-09 6.373690466248D-01
    1.620501279831D-06 2.303793909959D-03 6.943941116333D-06 5.153678333282D+03
    5.616000000000D+05 3.725290298462D-08-1.409604287151D+00-2.235174179077D-08
    9.655678419935D-01 2.480312500000D+02 2.919567908591D+00-8.130338661240D-09
    4.043025551100D-10 1.000000000000D+00 1.516000000000D+03 0.000000000000D+00
    2.000000000000D+00 0.000000000000D+00-1.071020960808D-08 1.800000000000D+01
    5.544000000000D+05
 8 09  1 31 12  0  0.0-1.886049285531D-04-1.591615728103D-12 0.000000000000D+00
    6.700000000000D+01 2.812500000000D+01 4.105170996850D-09-3.426643926617D-02
    1.469627022743D-06 1.048747228924D-02 6.396323442459D-06 5.153683704376D+03
    5.616000000000D+05 1.024454832077D-07-1.351625879797D+00-6.332993507385D-08
    9.867421065694D-01 2.690000000000D+02 2.974444359078D+00-8.068907530958D-09
    4.185888644778D-10 1.000000000000D+00 1.516000000000D+03 0.000000000000D+00
    2.000000000000D+00 0.000000000000D+00-4.190951585770D-09 6.700000000000D+01
    5.544000000000D+05
11 09  1 31 12  0  0.0 8.910894393921D-06-1.136868377216D-12 0.000000000000D+00
    4.900000000000D+01 7.240625000000D+01 6.251688979368D-09 4.952287003089D-01
    3.995373845100D-06 9.169034077786D-03 8.190050721169D-06 5.153669492722D+03
    5.616000000000D+05-3.911554813385D-08 1.525727995941D+00 1.508742570877D-07
    8.895949234507D-01 1.808125000000D+02 6.827373502939D-01-8.991445958386D-09
    1.321483616526D-10 1.000000000000D+00 1.516000000000D+03 0.000000000000D+00
    2.800000000000D+00 0.000000000000D+00-1.210719347000D-08 4.900000000000D+01
    5.544000000000D+05
13 09  1 31 12  0  0.0 2.869390882552D-04 1.364242052659D-12 0.000000000000D+00
    1.860000000000D+02-2.481250000000D+01 3.528361256123D-09 3.136268910372D+00
   -1.261010766029D-06 3.725973656401D-03 1.005828380585D-05 5.153760417938D+03
    5.616000000000D+05 3.725290298462D-09-2.402893061844D+00-1.303851604462D-08
    9.954310207261D-01 2.037812500000D+02 1.506258768238D+00-7.491740632497D-09
   -2.285809498855D-11 1.000000000000D+00 1.516000000000D+03 0.000000000000D+00
    2.800000000000D+00 0.000000000000D+00-1.117587089539D-08 1.860000000000D+02
    5.544000000000D+05
17 09  1 31 12  0  0.0 4.571303725243D-05 1.136868377216D-12 0.000000000000D+00
    9.100000000000D+01-2.103125000000D+01 4.372324982028D-09-2.774694039864D+00
   -1.052394509315D-06 4.179838579148D-03 1.141801476479D-05 5.153642116547D+03
    5.616000000000D+05-5.587935447693D-08 7.002365744754D-01-5.215406417847D-08
    9.598879864790D-01 1.571562500000D+02-2.758106845627D+00-7.839969423338D-09
   -1.303625729816D-10 1.000000000000D+00 1.516000000000D+03 0.000000000000D+00
    2.800000000000D+00 0.000000000000D+00-1.024454832077D-08 9.100000000000D+01
    5.544000000000D+05
19 09  1 31 12  0  0.0 3.311876207590D-05-5.684341886081D-13 0.000000000000D+00
    2.300000000000D+01-1.940625000000D+01 4.462685888780D-09 2.763151655717D+00
   -8.698552846909D-07 5.097928224131D-03 1.179985702038D-05 5.153787374496D+03
    5.616000000000D+05-4.842877388000D-08 7.566124194414D-01 5.215406417847D-08
    9.575850491352D-01 1.501875000000D+02-3.902227373605D-01-7.860684571922D-09
   -1.792931825664D-10 1.000000000000D+00 1.516000000000D+03 0.000000000000D+00
    2.000000000000D+00 0.000000000000D+00-1.443549990654D-08 2.300000000000D+01
    5.544000000000D+05
20 09  1 31 12  0  0.0 9.212177246809D-05-1.136868377216D-12 0.000000000000D+00
    5.600000000000D+01-8.968750000000D+00 5.185215985059D-09-1.418057427190D+00
   -4.582107067108D-07 3.918339964002D-03 4.144385457039D-06 5.153682680130D+03
    5.616000000000D+05 5.401670932770D-08 2.757478501831D+00 1.415610313416D-07
    9.437099045969D-01 2.898437500000D+02 1.312883967436D+00-8.565713939225D-09
   -2.517962026082D-10 1.000000000000D+00 1.516000000000D+03 0.000000000000D+00
    2.000000000000D+00 0.000000000000D+00-6.519258022308D-09 5.600000000000D+01
    5.544000000000D+05
23 09  1 31 12  0  0.0 3.861617296934D-04 6.821210263297D-13 0.000000000000D+00
    5.700000000000D+01-2.903125000000D+01 4.088384583343D-09 2.219471872267D+00
   -1.415610313416D-06 5.774989491329D-03 1.004524528980D-05 5.153652109146D+03
    5.616000000000D+05-1.862645149231D-08-2.452134397240D+00 5.774199962616D-08
    9.710744353423D-01 1.914062500000D+02 2.883314150705D+00-7.821754378894D-09
   -1.307197307158D-10 1.000000000000D+00 1.516000000000D+03 0.000000000000D+00
    2.000000000000D+00 0.000000000000D+00-2.002343535423D-08 5.700000000000D+01
    5.544000000000D+05
25 09  1 31 12  0  0.0 2.112956717610D-04 2.546585164964D-11 0.000000000000D+00
    5.200000000000D+01 3.006250000000D+01 4.493401453921D-09-1.145706610593D+00
    1.648440957069D-06 1.178765960503D-02 7.944181561470D-06 5.153672845840D+03
    5.616000000000D+05-2.253800630569D-07-1.504370190737D+00 9.313225746155D-09
    9.679169007555D-01 2.348750000000D+02-1.231136595244D+00-8.226056934004D-09
    4.685909472653D-10 1.000000000000D+00 1.516000000000D+03 0.000000000000D+00
    2.000000000000D+00 0.000000000000D+00-7.450580596924D-09 5.200000000000D+01
    5.544000000000D+05
28 09  1 31 12  0  0.0-2.371612936258D-05 0.000000000000D+00 0.000000000000D+00
    1.060000000000D+02-6.312500000000D+01 4.651979487904D-09-2.356005188593D+00
   -3.281980752945D-06 1.462450635154D-02 5.166977643967D-06 5.153638595581D+03
    5.616000000000D+05 2.402812242508D-07-3.329088868771D-01 1.117587089539D-08
    9.658957024159D-01 2.785000000000D+02-2.059481564234D+00-8.041049227691D-09
   -2.464388365953D-11 1.000000000000D+00 1.516000000000D+03 0.000000000000D+00
    2.800000000000D+00 0.000000000000D+00-1.024454832077D-08 1.060000000000D+02
    5.544000000000D+05
32 09  1 31 12  0  0.0 2.993624657393D-04-3.069544618484D-12 0.000000000000D+00
    9.800000000000D+01-2.265625000000D+01 4.646264964157D-09 1.416720280566D+00
   -1.493841409683D-06 1.358185498975D-02 4.457309842110D-06 5.153643367767D+03
    5.616000000000D+05 2.328306436539D-07 2.864531588953D+00-2.123415470123D-07
    9.657721853166D-01 2.942812500000D+02-1.204890772583D+00-8.271773123981D-09
   -2.839403986859D-10 1.000000000000D+00 1.516000000000D+03 0.000000000000D+00
    2.800000000000D+00 0.000000000000D+00-3.259629011154D-09 9.800000000000D+01
    5.544000000000D+05
27 09  1 31 12  0  0.0 2.083647996187D-05 3.183231456205D-12 0.000000000000D+00
    2.700000000000D+01 4.181250000000D+01 4.195174745867D-09-2.015229275417D+00
    2.404674887657D-06 2.106045570690D-02 6.470829248428D-06 5.155187116623D+03
    5.616000000000D+05 2.924352884293D-07-1.468515913354D+00 1.993030309677D-07
    9.725696107652D-01 2.529375000000D+02-1.654071829565D+00-7.748179885650D-09
    5.078782980268D-10 1.000000000000D+00 1.516000000000D+03 0.000000000000D+00
    2.000000000000D+00 0.000000000000D+00-4.656612873077D-09 2.700000000000D+01
    5.565000000000D+05
